{
    "links": {
        "self": "http://www.neowsapp.com/rest/v1/neo/3552669?api_key=iIulBulltgU6a56xZRHN4H3l9WmuAYTsLGpBGhQ2"
    },
    "id": "3552669",
    "neo_reference_id": "3552669",
    "name": "(2010 XE)",
    "designation": "2010 XE",
    "nasa_jpl_url": "http://ssd.jpl.nasa.gov/sbdb.cgi?sstr=3552669",
    "absolute_magnitude_h": 25.3,
    "estimated_diameter": {
        "kilometers": {
            "estimated_diameter_min": 0.0231502122,
            "estimated_diameter_max": 0.0517654482
        },
        "meters": {
            "estimated_diameter_min": 23.150212221,
            "estimated_diameter_max": 51.7654482198
        },
        "miles": {
            "estimated_diameter_min": 0.0143848705,
            "estimated_diameter_max": 0.0321655483
        },
        "feet": {
            "estimated_diameter_min": 75.9521422633,
            "estimated_diameter_max": 169.8341531374
        }
    },
    "is_potentially_hazardous_asteroid": false,
    "close_approach_data": [
        {
            "close_approach_date": "2010-12-01",
            "close_approach_date_full": "2010-Dec-01 23:33",
            "epoch_date_close_approach": 1291246380000,
            "relative_velocity": {
                "kilometers_per_second": "9.9383481674",
                "kilometers_per_hour": "35778.0534027291",
                "miles_per_hour": "22231.0910157124"
            },
            "miss_distance": {
                "astronomical": "0.0547053486",
                "lunar": "21.2803806054",
                "kilometers": "8183803.628167482",
                "miles": "5085179.7716239716"
            },
            "orbiting_body": "Earth"
        }
    ],
    "orbital_data": {
        "orbit_id": "10",
        "orbit_determination_date": "2017-04-06 08:55:30",
        "first_observation_date": "2010-12-01",
        "last_observation_date": "2010-12-09",
        "data_arc_in_days": 8,
        "observations_used": 19,
        "orbit_uncertainty": "8",
        "minimum_orbit_intersection": ".0546316",
        "jupiter_tisserand_invariant": "3.496",
        "epoch_osculation": "2455533.5",
        "eccentricity": ".5154502581149619",
        "semi_major_axis": "2.14226849664198",
        "inclination": "14.04712771597832",
        "ascending_node_longitude": "68.3291877676678",
        "orbital_period": "1145.273676441685",
        "perihelion_distance": "1.03803564709632",
        "perihelion_argument": "7.89764858255352",
        "aphelion_distance": "3.24650134618764",
        "perihelion_time": "2455538.145370517307",
        "mean_anomaly": "358.5397958403913",
        "mean_motion": ".31433534831474",
        "equinox": "J2000",
        "orbit_class": {
            "orbit_class_type": "AMO",
            "orbit_class_description": "Near-Earth asteroid orbits similar to that of 1221 Amor",
            "orbit_class_range": "1.017 AU < q (perihelion) < 1.3 AU"
        }
    },
    "is_sentry_object": false
}